{"type": "FeatureCollection", "features": [ {"type": "Feature", "properties": {"norad_id": 39634, "name": "SENTINEL-1A", "group": "resource", "lat": 48.81194397209222, "lon": -168.82882491052806, "alt_km": 690.7303129411484, "timestamp": "2025-12-22T14:45:57.041910+00:00", "meta": {"OBJECT_NAME": "SENTINEL-1A", "OBJECT_ID": "2014-016A", "EPOCH": "2025-12-22T05:56:29.984064", "MEAN_MOTION": 14.59200923, "ECCENTRICITY": 0.00012748, "INCLINATION": 98.1795, "RA_OF_ASC_NODE": 1.3485, "ARG_OF_PERICENTER": 84.9894, "MEAN_ANOMALY": 275.1451, "EPHEMERIS_TYPE": 0, "CLASSIFICATION_TYPE": "U", "NORAD_CAT_ID": 39634, "ELEMENT_SET_NO": 999, "REV_AT_EPOCH": 62421, "BSTAR": 1.3297799e-05, "MEAN_MOTION_DOT": 1.7e-07, "MEAN_MOTION_DDOT": 0}, "tle": {"line1": "1 39634U 14016A   25356.24756926  .00000017  00000+0  13298-4 0  9993", "line2": "2 39634  98.1795   1.3485 0001274  84.9894 275.1451 14.59200923624218"}}, "geometry": {"type": "Point", "coordinates": [-168.82882491052806, 48.81194397209222]}}, {"type": "Feature", "properties": {"norad_id": 39731, "name": "KAZEOSAT 1", "group": "resource", "lat": -36.381785676173756, "lon": -117.90565477450956, "alt_km": 758.4190772526499, "timestamp": "2025-12-22T14:45:57.041920+00:00", "meta": {"OBJECT_NAME": "KAZEOSAT 1", "OBJECT_ID": "2014-024A", "EPOCH": "2025-12-22T07:06:10.767744", "MEAN_MOTION": 14.42067263, "ECCENTRICITY": 0.00012158, "INCLINATION": 98.3428, "RA_OF_ASC_NODE": 67.989, "ARG_OF_PERICENTER": 97.7259, "MEAN_ANOMALY": 262.4069, "EPHEMERIS_TYPE": 0, "CLASSIFICATION_TYPE": "U", "NORAD_CAT_ID": 39731, "ELEMENT_SET_NO": 999, "REV_AT_EPOCH": 61306, "BSTAR": 5.2522148e-05, "MEAN_MOTION_DOT": 1.3e-06, "MEAN_MOTION_DDOT": 0}, "tle": {"line1": "1 39731U 14024A   25356.29595796  .00000130  00000+0  52522-4 0  9990", "line2": "2 39731  98.3428  67.9890 0001215  97.7259 262.4069 14.42067263613066"}}, "geometry": {"type": "Point", "coordinates": [-117.90565477450956, -36.381785676173756]}}, {"type": "Feature", "properties": {"norad_id": 39766, "name": "ALOS-2", "group": "resource", "lat": -11.609588176217281, "lon": 92.96073164515917, "alt_km": 635.8049465087979, "timestamp": "2025-12-22T14:45:57.041930+00:00", "meta": {"OBJECT_NAME": "ALOS-2", "OBJECT_ID": "2014-029A", "EPOCH": "2025-12-22T06:42:10.019232", "MEAN_MOTION": 14.79474307, "ECCENTRICITY": 0.00013866, "INCLINATION": 97.9229, "RA_OF_ASC_NODE": 90.9901, "ARG_OF_PERICENTER": 105.3753, "MEAN_ANOMALY": 254.7611, "EPHEMERIS_TYPE": 0, "CLASSIFICATION_TYPE": "U", "NORAD_CAT_ID": 39766, "ELEMENT_SET_NO": 999, "REV_AT_EPOCH": 62542, "BSTAR": 0.00012959097, "MEAN_MOTION_DOT": 9.17e-06, "MEAN_MOTION_DDOT": 0}, "tle": {"line1": "1 39766U 14029A   25356.27928263  .00000917  00000+0  12959-3 0  9992", "line2": "2 39766  97.9229  90.9901 0001386 105.3753 254.7611 14.79474307625422"}}, "geometry": {"type": "Point", "coordinates": [92.96073164515917, -11.609588176217281]}}, {"type": "Feature", "properties": {"norad_id": 40010, "name": "KAZEOSAT 2", "group": "resource", "lat": 76.87083324770624, "lon": 55.070898266445404, "alt_km": 603.911123361605, "timestamp": "2025-12-22T14:45:57.041940+00:00", "meta": {"OBJECT_NAME": "KAZEOSAT 2", "OBJECT_ID": "2014-033A", "EPOCH": "2025-12-22T06:13:43.300416", "MEAN_MOTION": 14.85181241, "ECCENTRICITY": 0.0008481, "INCLINATION": 97.5494, "RA_OF_ASC_NODE": 200.082, "ARG_OF_PERICENTER": 173.5418, "MEAN_ANOMALY": 186.5908, "EPHEMERIS_TYPE": 0, "CLASSIFICATION_TYPE": "U", "NORAD_CAT_ID": 40010, "ELEMENT_SET_NO": 999, "REV_AT_EPOCH": 62269, "BSTAR": 7.6509258e-05, "MEAN_MOTION_DOT": 6.06e-06, "MEAN_MOTION_DDOT": 0}, "tle": {"line1": "1 40010U 14033A   25356.25952894  .00000606  00000+0  76509-4 0  9993", "line2": "2 40010  97.5494 200.0820 0008481 173.5418 186.5908 14.85181241622694"}}, "geometry": {"type": "Point", "coordinates": [55.070898266445404, 76.87083324770624]}}, {"type": "Feature", "properties": {"norad_id": 40011, "name": "HODOYOSHI-4", "group": "resource", "lat": -82.33588272541186, "lon": -95.13042605654334, "alt_km": 617.0782699882575, "timestamp": "2025-12-22T14:45:57.041950+00:00", "meta": {"OBJECT_NAME": "HODOYOSHI-4", "OBJECT_ID": "2014-033B", "EPOCH": "2025-12-22T05:28:43.741056", "MEAN_MOTION": 14.87514033, "ECCENTRICITY": 0.00239134, "INCLINATION": 97.5407, "RA_OF_ASC_NODE": 184.6438, "ARG_OF_PERICENTER": 168.6118, "MEAN_ANOMALY": 191.5645, "EPHEMERIS_TYPE": 0, "CLASSIFICATION_TYPE": "U", "NORAD_CAT_ID": 40011, "ELEMENT_SET_NO": 999, "REV_AT_EPOCH": 62249, "BSTAR": 0.00019785688, "MEAN_MOTION_DOT": 1.751e-05, "MEAN_MOTION_DDOT": 0}, "tle": {"line1": "1 40011U 14033B   25356.22828404  .00001751  00000+0  19786-3 0  9995", "line2": "2 40011  97.5407 184.6438 0023913 168.6118 191.5645 14.87514033622493"}}, "geometry": {"type": "Point", "coordinates": [-95.13042605654334, -82.33588272541186]}}, {"type": "Feature", "properties": {"norad_id": 40013, "name": "DEIMOS-2", "group": "resource", "lat": -79.97190679997242, "lon": 3.0009681440904488, "alt_km": 596.910633353069, "timestamp": "2025-12-22T14:45:57.041961+00:00", "meta": {"OBJECT_NAME": "DEIMOS-2", "OBJECT_ID": "2014-033D", "EPOCH": "2025-12-22T05:32:49.270848", "MEAN_MOTION": 14.93012585, "ECCENTRICITY": 0.00015111, "INCLINATION": 97.6066, "RA_OF_ASC_NODE": 231.7183, "ARG_OF_PERICENTER": 101.4925, "MEAN_ANOMALY": 258.6464, "EPHEMERIS_TYPE": 0, "CLASSIFICATION_TYPE": "U", "NORAD_CAT_ID": 40013, "ELEMENT_SET_NO": 999, "REV_AT_EPOCH": 61131, "BSTAR": 0.00016895027, "MEAN_MOTION_DOT": 1.702e-05, "MEAN_MOTION_DDOT": 0}, "tle": {"line1": "1 40013U 14033D   25356.23112582  .00001702  00000+0  16895-3 0  9995", "line2": "2 40013  97.6066 231.7183 0001511 101.4925 258.6464 14.93012585611314"}}, "geometry": {"type": "Point", "coordinates": [3.0009681440904488, -79.97190679997242]}}, {"type": "Feature", "properties": {"norad_id": 40015, "name": "HODOYOSHI-3", "group": "resource", "lat": 76.46304332788428, "lon": 15.80644864588563, "alt_km": 615.7258770171102, "timestamp": "2025-12-22T14:45:57.041971+00:00", "meta": {"OBJECT_NAME": "HODOYOSHI-3", "OBJECT_ID": "2014-033F", "EPOCH": "2025-12-22T06:13:21.301248", "MEAN_MOTION": 14.84837528, "ECCENTRICITY": 0.00323432, "INCLINATION": 97.6205, "RA_OF_ASC_NODE": 161.6807, "ARG_OF_PERICENTER": 215.5521, "MEAN_ANOMALY": 144.354, "EPHEMERIS_TYPE": 0, "CLASSIFICATION_TYPE": "U", "NORAD_CAT_ID": 40015, "ELEMENT_SET_NO": 999, "REV_AT_EPOCH": 62136, "BSTAR": 0.00018152713, "MEAN_MOTION_DOT": 1.504e-05, "MEAN_MOTION_DDOT": 0}, "tle": {"line1": "1 40015U 14033F   25356.25927432  .00001504  00000+0  18153-3 0  9996", "line2": "2 40015  97.6205 161.6807 0032343 215.5521 144.3540 14.84837528621365"}}, "geometry": {"type": "Point", "coordinates": [15.80644864588563, 76.46304332788428]}}, {"type": "Feature", "properties": {"norad_id": 40053, "name": "SPOT 7", "group": "resource", "lat": 48.92009243302838, "lon": 49.07296630958459, "alt_km": 685.4381130865149, "timestamp": "2025-12-22T14:45:57.041980+00:00", "meta": {"OBJECT_NAME": "SPOT 7", "OBJECT_ID": "2014-034A", "EPOCH": "2025-12-22T06:19:11.199648", "MEAN_MOTION": 14.60744125, "ECCENTRICITY": 0.00015525, "INCLINATION": 98.0897, "RA_OF_ASC_NODE": 58.1195, "ARG_OF_PERICENTER": 84.1163, "MEAN_ANOMALY": 276.0215, "EPHEMERIS_TYPE": 0, "CLASSIFICATION_TYPE": "U", "NORAD_CAT_ID": 40053, "ELEMENT_SET_NO": 999, "REV_AT_EPOCH": 61130, "BSTAR": 6.3483716e-05, "MEAN_MOTION_DOT": 2.64e-06, "MEAN_MOTION_DDOT": 0}, "tle": {"line1": "1 40053U 14034A   25356.26332407  .00000264  00000+0  63484-4 0  9992", "line2": "2 40053  98.0897  58.1195 0001552  84.1163 276.0215 14.60744125611308"}}, "geometry": {"type": "Point", "coordinates": [49.07296630958459, 48.92009243302838]}}, {"type": "Feature", "properties": {"norad_id": 40072, "name": "SKYSAT-B", "group": "resource", "lat": -29.250371217853097, "lon": 116.11802783996158, "alt_km": 611.9047503478932, "timestamp": "2025-12-22T14:45:57.041990+00:00", "meta": {"OBJECT_NAME": "SKYSAT-B", "OBJECT_ID": "2014-037D", "EPOCH": "2025-12-21T18:27:09.238752", "MEAN_MOTION": 14.87356718, "ECCENTRICITY": 0.00067041, "INCLINATION": 98.3624, "RA_OF_ASC_NODE": 299.9522, "ARG_OF_PERICENTER": 124.7394, "MEAN_ANOMALY": 235.4453, "EPHEMERIS_TYPE": 0, "CLASSIFICATION_TYPE": "U", "NORAD_CAT_ID": 40072, "ELEMENT_SET_NO": 999, "REV_AT_EPOCH": 61958, "BSTAR": 0.00015196295, "MEAN_MOTION_DOT": 1.312e-05, "MEAN_MOTION_DDOT": 0}, "tle": {"line1": "1 40072U 14037D   25355.76885693  .00001312  00000+0  15196-3 0  9991", "line2": "2 40072  98.3624 299.9522 0006704 124.7394 235.4453 14.87356718619587"}}, "geometry": {"type": "Point", "coordinates": [116.11802783996158, -29.250371217853097]}}, {"type": "Feature", "properties": {"norad_id": 40115, "name": "WORLDVIEW-3 (WV-3)", "group": "resource", "lat": 20.10571384852584, "lon": 65.86936650393076, "alt_km": 615.1972602040041, "timestamp": "2025-12-22T14:45:57.042000+00:00", "meta": {"OBJECT_NAME": "WORLDVIEW-3 (WV-3)", "OBJECT_ID": "2014-048A", "EPOCH": "2025-12-22T04:58:10.463520", "MEAN_MOTION": 14.84668757, "ECCENTRICITY": 0.00018782, "INCLINATION": 97.8768, "RA_OF_ASC_NODE": 68.371, "ARG_OF_PERICENTER": 133.6034, "MEAN_ANOMALY": 226.5337, "EPHEMERIS_TYPE": 0, "CLASSIFICATION_TYPE": "U", "NORAD_CAT_ID": 40115, "ELEMENT_SET_NO": 999, "REV_AT_EPOCH": 61564, "BSTAR": 0.00012594974, "MEAN_MOTION_DOT": 1.012e-05, "MEAN_MOTION_DDOT": 0}, "tle": {"line1": "1 40115U 14048A   25356.20706555  .00001012  00000+0  12595-3 0  9997", "line2": "2 40115  97.8768  68.3710 0001878 133.6034 226.5337 14.84668757615643"}}, "geometry": {"type": "Point", "coordinates": [65.86936650393076, 20.10571384852584]}}]}